STARLINK-35647          
1 66388U 25257J   25337.91670139 -.02025270  00000+0 -49722-1 0  9992
2 66388  53.1596 306.0333 0001562 103.4349 184.4625 15.43645387  5076
STARLINK-35694          
1 66389U 25257K   25337.41094860  .00018953  00000+0  34878-3 0  9993
2 66389  53.1590 308.4226 0001835 114.7525 245.3675 15.49244836  4938
STARLINK-35665          
1 66390U 25257L   25337.92083271  .00126894  00000+0  22495-2 0  9990
2 66390  53.1591 305.9128 0001313  91.1298 268.9861 15.49349961  5114
STARLINK-35656          
1 66391U 25257M   25337.91670139 -.00058930  00000+0 -14737-2 0  9992
2 66391  53.1601 305.9548 0001534  92.8644 227.3212 15.39638258  5175
STARLINK-35671          
1 66392U 25257N   25337.91670139 -.02022380  00000+0 -50511-1 0  9994
2 66392  53.1596 306.0255 0001537 105.7430 185.5184 15.43136510  5077
STARLINK-35652          
1 66393U 25257P   25337.86216093  .00144211  00000+0  25490-2 0  9997
2 66393  53.1591 306.2619 0001370  84.1138 276.0027 15.49357934  5005
STARLINK-35672          
1 66394U 25257Q   25337.86147569  .00152510  00000+0  26911-2 0  9999
2 66394  53.1591 306.2569 0001427 102.9892 257.1277 15.49371399  5007
STARLINK-35681          
1 66395U 25257R   25337.86113275  .00217676  00000+0  38009-2 0  9993
2 66395  53.1592 306.2550 0001082 105.6339 254.4790 15.49405175  4933
STARLINK-35669          
1 66396U 25257S   25337.79628146  .00143274  00000+0  25321-2 0  9999
2 66396  53.1589 306.5605 0001260  95.4481 264.6672 15.49365388  4995
STARLINK-35510          
1 66397U 25257T   25337.79593922  .00177876  00000+0  31270-2 0  9998
2 66397  53.1590 306.5586 0001103  81.5058 278.6076 15.49372590  4994
STARLINK-35642          
1 66398U 25257U   25337.79559536  .00154107  00000+0  27184-2 0  9993
2 66398  53.1591 306.5556 0001055  56.2590 303.8520 15.49373611  4999
STARLINK-35657          
1 66399U 25257V   25337.79525072  .00160623  00000+0  28306-2 0  9999
2 66399  53.1591 306.5535 0001268  97.2276 262.8878 15.49374318  4994
