CCSDS_OMM_VERS = 2.0
CREATION_DATE  = 
ORIGINATOR     = 

OBJECT_NAME    = STARLINK-35647
OBJECT_ID      = 2025-257J
CENTER_NAME    = EARTH
REF_FRAME      = TEME
TIME_SYSTEM    = UTC
MEAN_ELEMENT_THEORY = SGP/SGP4

EPOCH          = 2025-12-03T22:00:03.000096
MEAN_MOTION    = 15.43645387
ECCENTRICITY   = .00015621
INCLINATION    = 53.1596
RA_OF_ASC_NODE = 306.0333
ARG_OF_PERICENTER = 103.4349
MEAN_ANOMALY   = 184.4625

EPHEMERIS_TYPE = 0
CLASSIFICATION_TYPE = U
NORAD_CAT_ID   = 66388
ELEMENT_SET_NO = 999
REV_AT_EPOCH   = 507
BSTAR          = -.49721741E-1
MEAN_MOTION_DOT = -.202527E-1
MEAN_MOTION_DDOT = 0

CCSDS_OMM_VERS = 2.0
CREATION_DATE  = 
ORIGINATOR     = 

OBJECT_NAME    = STARLINK-35694
OBJECT_ID      = 2025-257K
CENTER_NAME    = EARTH
REF_FRAME      = TEME
TIME_SYSTEM    = UTC
MEAN_ELEMENT_THEORY = SGP/SGP4

EPOCH          = 2025-12-03T09:51:45.959040
MEAN_MOTION    = 15.49244836
ECCENTRICITY   = .00018355
INCLINATION    = 53.1590
RA_OF_ASC_NODE = 308.4226
ARG_OF_PERICENTER = 114.7525
MEAN_ANOMALY   = 245.3675

EPHEMERIS_TYPE = 0
CLASSIFICATION_TYPE = U
NORAD_CAT_ID   = 66389
ELEMENT_SET_NO = 999
REV_AT_EPOCH   = 493
BSTAR          = .34877553E-3
MEAN_MOTION_DOT = .18953E-3
MEAN_MOTION_DDOT = 0

CCSDS_OMM_VERS = 2.0
CREATION_DATE  = 
ORIGINATOR     = 

OBJECT_NAME    = STARLINK-35665
OBJECT_ID      = 2025-257L
CENTER_NAME    = EARTH
REF_FRAME      = TEME
TIME_SYSTEM    = UTC
MEAN_ELEMENT_THEORY = SGP/SGP4

EPOCH          = 2025-12-03T22:05:59.946144
MEAN_MOTION    = 15.49349961
ECCENTRICITY   = .00013135
INCLINATION    = 53.1591
RA_OF_ASC_NODE = 305.9128
ARG_OF_PERICENTER = 91.1298
MEAN_ANOMALY   = 268.9861

EPHEMERIS_TYPE = 0
CLASSIFICATION_TYPE = U
NORAD_CAT_ID   = 66390
ELEMENT_SET_NO = 999
REV_AT_EPOCH   = 511
BSTAR          = .22494957E-2
MEAN_MOTION_DOT = .126894E-2
MEAN_MOTION_DDOT = 0

CCSDS_OMM_VERS = 2.0
CREATION_DATE  = 
ORIGINATOR     = 

OBJECT_NAME    = STARLINK-35656
OBJECT_ID      = 2025-257M
CENTER_NAME    = EARTH
REF_FRAME      = TEME
TIME_SYSTEM    = UTC
MEAN_ELEMENT_THEORY = SGP/SGP4

EPOCH          = 2025-12-03T22:00:03.000096
MEAN_MOTION    = 15.39638258
ECCENTRICITY   = .00015344
INCLINATION    = 53.1601
RA_OF_ASC_NODE = 305.9548
ARG_OF_PERICENTER = 92.8644
MEAN_ANOMALY   = 227.3212

EPHEMERIS_TYPE = 0
CLASSIFICATION_TYPE = U
NORAD_CAT_ID   = 66391
ELEMENT_SET_NO = 999
REV_AT_EPOCH   = 517
BSTAR          = -.1473746E-2
MEAN_MOTION_DOT = -.5893E-3
MEAN_MOTION_DDOT = 0

CCSDS_OMM_VERS = 2.0
CREATION_DATE  = 
ORIGINATOR     = 

OBJECT_NAME    = STARLINK-35671
OBJECT_ID      = 2025-257N
CENTER_NAME    = EARTH
REF_FRAME      = TEME
TIME_SYSTEM    = UTC
MEAN_ELEMENT_THEORY = SGP/SGP4

EPOCH          = 2025-12-03T22:00:03.000096
MEAN_MOTION    = 15.43136510
ECCENTRICITY   = .00015376
INCLINATION    = 53.1596
RA_OF_ASC_NODE = 306.0255
ARG_OF_PERICENTER = 105.7430
MEAN_ANOMALY   = 185.5184

EPHEMERIS_TYPE = 0
CLASSIFICATION_TYPE = U
NORAD_CAT_ID   = 66392
ELEMENT_SET_NO = 999
REV_AT_EPOCH   = 507
BSTAR          = -.50510661E-1
MEAN_MOTION_DOT = -.202238E-1
MEAN_MOTION_DDOT = 0

CCSDS_OMM_VERS = 2.0
CREATION_DATE  = 
ORIGINATOR     = 

OBJECT_NAME    = STARLINK-35652
OBJECT_ID      = 2025-257P
CENTER_NAME    = EARTH
REF_FRAME      = TEME
TIME_SYSTEM    = UTC
MEAN_ELEMENT_THEORY = SGP/SGP4

EPOCH          = 2025-12-03T20:41:30.704352
MEAN_MOTION    = 15.49357934
ECCENTRICITY   = .00013704
INCLINATION    = 53.1591
RA_OF_ASC_NODE = 306.2619
ARG_OF_PERICENTER = 84.1138
MEAN_ANOMALY   = 276.0027

EPHEMERIS_TYPE = 0
CLASSIFICATION_TYPE = U
NORAD_CAT_ID   = 66393
ELEMENT_SET_NO = 999
REV_AT_EPOCH   = 500
BSTAR          = .25489897E-2
MEAN_MOTION_DOT = .144211E-2
MEAN_MOTION_DDOT = 0

CCSDS_OMM_VERS = 2.0
CREATION_DATE  = 
ORIGINATOR     = 

OBJECT_NAME    = STARLINK-35672
OBJECT_ID      = 2025-257Q
CENTER_NAME    = EARTH
REF_FRAME      = TEME
TIME_SYSTEM    = UTC
MEAN_ELEMENT_THEORY = SGP/SGP4

EPOCH          = 2025-12-03T20:40:31.499616
MEAN_MOTION    = 15.49371399
ECCENTRICITY   = .00014273
INCLINATION    = 53.1591
RA_OF_ASC_NODE = 306.2569
ARG_OF_PERICENTER = 102.9892
MEAN_ANOMALY   = 257.1277

EPHEMERIS_TYPE = 0
CLASSIFICATION_TYPE = U
NORAD_CAT_ID   = 66394
ELEMENT_SET_NO = 999
REV_AT_EPOCH   = 500
BSTAR          = .2691073E-2
MEAN_MOTION_DOT = .15251E-2
MEAN_MOTION_DDOT = 0

CCSDS_OMM_VERS = 2.0
CREATION_DATE  = 
ORIGINATOR     = 

OBJECT_NAME    = STARLINK-35681
OBJECT_ID      = 2025-257R
CENTER_NAME    = EARTH
REF_FRAME      = TEME
TIME_SYSTEM    = UTC
MEAN_ELEMENT_THEORY = SGP/SGP4

EPOCH          = 2025-12-03T20:40:01.869600
MEAN_MOTION    = 15.49405175
ECCENTRICITY   = .00010828
INCLINATION    = 53.1592
RA_OF_ASC_NODE = 306.2550
ARG_OF_PERICENTER = 105.6339
MEAN_ANOMALY   = 254.4790

EPHEMERIS_TYPE = 0
CLASSIFICATION_TYPE = U
NORAD_CAT_ID   = 66395
ELEMENT_SET_NO = 999
REV_AT_EPOCH   = 493
BSTAR          = .38009398E-2
MEAN_MOTION_DOT = .217676E-2
MEAN_MOTION_DDOT = 0

CCSDS_OMM_VERS = 2.0
CREATION_DATE  = 
ORIGINATOR     = 

OBJECT_NAME    = STARLINK-35669
OBJECT_ID      = 2025-257S
CENTER_NAME    = EARTH
REF_FRAME      = TEME
TIME_SYSTEM    = UTC
MEAN_ELEMENT_THEORY = SGP/SGP4

EPOCH          = 2025-12-03T19:06:38.718144
MEAN_MOTION    = 15.49365388
ECCENTRICITY   = .00012605
INCLINATION    = 53.1589
RA_OF_ASC_NODE = 306.5605
ARG_OF_PERICENTER = 95.4481
MEAN_ANOMALY   = 264.6672

EPHEMERIS_TYPE = 0
CLASSIFICATION_TYPE = U
NORAD_CAT_ID   = 66396
ELEMENT_SET_NO = 999
REV_AT_EPOCH   = 499
BSTAR          = .25321256E-2
MEAN_MOTION_DOT = .143274E-2
MEAN_MOTION_DDOT = 0

CCSDS_OMM_VERS = 2.0
CREATION_DATE  = 
ORIGINATOR     = 

OBJECT_NAME    = STARLINK-35510
OBJECT_ID      = 2025-257T
CENTER_NAME    = EARTH
REF_FRAME      = TEME
TIME_SYSTEM    = UTC
MEAN_ELEMENT_THEORY = SGP/SGP4

EPOCH          = 2025-12-03T19:06:09.148608
MEAN_MOTION    = 15.49372590
ECCENTRICITY   = .00011039
INCLINATION    = 53.1590
RA_OF_ASC_NODE = 306.5586
ARG_OF_PERICENTER = 81.5058
MEAN_ANOMALY   = 278.6076

EPHEMERIS_TYPE = 0
CLASSIFICATION_TYPE = U
NORAD_CAT_ID   = 66397
ELEMENT_SET_NO = 999
REV_AT_EPOCH   = 499
BSTAR          = .31269844E-2
MEAN_MOTION_DOT = .177876E-2
MEAN_MOTION_DDOT = 0

CCSDS_OMM_VERS = 2.0
CREATION_DATE  = 
ORIGINATOR     = 

OBJECT_NAME    = STARLINK-35642
OBJECT_ID      = 2025-257U
CENTER_NAME    = EARTH
REF_FRAME      = TEME
TIME_SYSTEM    = UTC
MEAN_ELEMENT_THEORY = SGP/SGP4

EPOCH          = 2025-12-03T19:05:39.439104
MEAN_MOTION    = 15.49373611
ECCENTRICITY   = .00010559
INCLINATION    = 53.1591
RA_OF_ASC_NODE = 306.5556
ARG_OF_PERICENTER = 56.2590
MEAN_ANOMALY   = 303.8520

EPHEMERIS_TYPE = 0
CLASSIFICATION_TYPE = U
NORAD_CAT_ID   = 66398
ELEMENT_SET_NO = 999
REV_AT_EPOCH   = 499
BSTAR          = .27184108E-2
MEAN_MOTION_DOT = .154107E-2
MEAN_MOTION_DDOT = 0

CCSDS_OMM_VERS = 2.0
CREATION_DATE  = 
ORIGINATOR     = 

OBJECT_NAME    = STARLINK-35657
OBJECT_ID      = 2025-257V
CENTER_NAME    = EARTH
REF_FRAME      = TEME
TIME_SYSTEM    = UTC
MEAN_ELEMENT_THEORY = SGP/SGP4

EPOCH          = 2025-12-03T19:05:09.662208
MEAN_MOTION    = 15.49374318
ECCENTRICITY   = .00012686
INCLINATION    = 53.1591
RA_OF_ASC_NODE = 306.5535
ARG_OF_PERICENTER = 97.2276
MEAN_ANOMALY   = 262.8878

EPHEMERIS_TYPE = 0
CLASSIFICATION_TYPE = U
NORAD_CAT_ID   = 66399
ELEMENT_SET_NO = 999
REV_AT_EPOCH   = 499
BSTAR          = .28305707E-2
MEAN_MOTION_DOT = .160623E-2
MEAN_MOTION_DDOT = 0

